FLOCK 2K-27             
1 42882U 17042BK  17345.90209609  .00005762  00000-0  17143-3 0  9992
2 42882  96.9947 247.0296 0014767  63.0647 297.2104 15.34981458 22895
